AE3VA                   
1 64563U 25135AM  26192.55051338  .00003392  00000+0  29647-3 0  9997
2 64563  97.7707 307.2982 0002999 156.9998 203.1359 14.97447923 57588
TIME FLIES              
1 64564U 25135AN  26191.28075192  .00002494  00000+0  23279-3 0  9998
2 64564  97.7729 305.5286 0002308 155.7792 204.3537 14.95089677 57356
LEMUR-2-HUBBLE-4        
1 64565U 25135AP  26192.25576058  .00001103  00000+0  10968-3 0  9991
2 64565  97.7715 305.8817 0002359 173.3640 186.7611 14.93677887 57461
ARVAKER-3               
1 64566U 25135AQ  26192.47560579  .00001335  00000+0  13156-3 0  9996
2 64566  97.7745 306.3338 0001509 171.6317 188.4929 14.93710610 57505
ARVAKER-2               
1 64567U 25135AR  26192.55311061  .00000997  00000+0  99738-4 0  9990
2 64567  97.7758 306.4431 0001077 161.7503 198.3755 14.93650364 57519
IRIDE-MS2-HEO-3         
1 64568U 25135AS  26192.56282589  .00000825  00000+0  87103-4 0  9997
2 64568  97.7753 306.3785 0001047 139.0599 221.0698 14.91925889 57511
IRIDE-MS2-HEO-2         
1 64569U 25135AT  26192.51211010  .00000975  00000+0  97409-4 0  9990
2 64569  97.7774 306.5446 0000218 252.7306 107.3890 14.93741358 57518
ICEYE-X54               
1 64570U 25135AU  26192.46038699  .00001980  00000+0  18769-3 0  9994
2 64570  97.7742 306.6508 0001786 194.4373 165.6796 14.94718789 57528
IRIDE-MS2-HEO-5         
1 64571U 25135AV  26192.53989980  .00001141  00000+0  11831-3 0  9993
2 64571  97.7748 306.3855 0000379 174.6233 185.4990 14.91908092 57519
ICEYE-X52               
1 64572U 25135AW  26192.52254524  .00001249  00000+0  12365-3 0  9994
2 64572  97.7766 306.5068 0000949 202.7655 157.3523 14.93643889 57514
MUSAT-3ALPHA            
1 64573U 25135AX  26192.29929236  .00000989  00000+0  76622-4 0  9995
2 64573  97.7106 306.4633 0003757 145.3094 214.8377 15.03702121 57556
ICEYE-X56               
1 64574U 25135AY  26192.51727837  .00001798  00000+0  16653-3 0  9990
2 64574  97.7761 307.2884 0001099 212.5529 147.5624 14.95747384 57566
ION SCV-018             
1 64575U 25135AZ  26191.92010741  .00000592  00000+0  59867-4 0  9990
2 64575  97.7797 306.7913 0011967 207.5814 152.4772 14.94689827 57474
IRIDE-MS2-HEO-6         
1 64576U 25135BA  26192.51674066  .00000818  00000+0  86401-4 0  9998
2 64576  97.7747 306.3889 0000358 179.4961 180.6258 14.91909626 57516
LYRA-3                  
1 64577U 25135BB  26192.52309641  .00000740  00000+0  11822-3 0  9992
2 64577  97.7747 296.5535 0019372 262.8042  97.0965 14.74544233 56850
ICEYE-X57               
1 64578U 25135BC  26192.53445711  .00002787  00000+0  22389-3 0  9996
2 64578  97.8010 309.0757 0002122  59.7559 300.3874 15.00865288 57678
GRUS-3ALPHA             
1 64579U 25135BD  26192.48322682  .00000700  00000+0  72451-4 0  9991
2 64579  97.7786 306.4753 0001490 274.1688  85.9361 14.93184245 57505
YAM-10                  
1 64580U 25135BE  26191.28520379  .00001080  00000+0  11237-3 0  9999
2 64580  97.7749 304.8192 0001651 277.2022  82.9009 14.91891587 57306
ICEYE-X55               
1 64581U 25135BF  26192.52375744  .00002010  00000+0  18744-3 0  9996
2 64581  97.7762 307.1228 0001811 254.9328 105.1692 14.95347253 57550
IRIDE-MS2-HEO-4         
1 64582U 25135BG  26192.46133882  .00001240  00000+0  12821-3 0  9999
2 64582  97.7747 306.4778 0000446 184.8865 175.2349 14.91899043 57514
CAPELLA-17 (ACADIA-7)   
1 64583U 25135BH  26192.15457353  .00002970  00000+0  30149-3 0  9992
2 64583  97.7702 305.4223 0003941 267.6438  92.4330 14.91594691 57420
ICEYE-X53               
1 64584U 25135BJ  26192.49168912  .00000122  00000+0  14272-4 0  9997
2 64584  97.7364 309.1677 0001775 166.5506 193.5765 15.00880328 57729
IRIDE-MS2-HEO-9         
1 64585U 25135BK  26192.57340411  .00000664  00000+0  71122-4 0  9991
2 64585  97.7781 306.7832 0000198 185.3999 174.7217 14.91926135 57530
LEMUR-2-SEJONG-2        
1 64586U 25135BL  26192.50489977  .00002121  00000+0  18992-3 0  9991
2 64586  97.7702 307.3643 0003677 236.0324 124.0548 14.96894868 57584
IRIDE-MS2-HEO-8         
1 64587U 25135BM  26192.55174269  .00001113  00000+0  11552-3 0  9997
2 64587  97.7757 306.7144 0000156 207.4171 152.7040 14.91931994 57532
BIFROST-DNK             
1 64588U 25135BN  26192.50806156  .00001131  00000+0  10937-3 0  9996
2 64588  97.7764 306.9714 0002940 262.4938  97.5948 14.94752929 57547
SATORO-T3               
1 64589U 25135BP  26192.53562723  .00001853  00000+0  17724-3 0  9991
2 64589  97.7735 306.8173 0003565 241.2924 118.7938 14.94428607 57546
TRANSPORTER-14 OBJECT BQ
1 64590U 25135BQ  26190.55988139  .00000846  00000+0  84464-4 0  9993
2 64590  97.7739 304.7766 0003961 253.1950 106.8836 14.94139280 57246
AE2A                    
1 64591U 25135BR  26192.54907733  .00002791  00000+0  24549-3 0  9994
2 64591  97.7717 307.6252 0003761 236.0762 124.0102 14.97346093 57607
HUBBLE 7                
1 64592U 25135BS  26192.47303102  .00001330  00000+0  13089-3 0  9992
2 64592  97.7773 306.9063 0001390 253.6080 106.4987 14.93759037 57535
