OBJECT_NAME,OBJECT_ID,EPOCH,MEAN_MOTION,ECCENTRICITY,INCLINATION,RA_OF_ASC_NODE,ARG_OF_PERICENTER,MEAN_ANOMALY,EPHEMERIS_TYPE,CLASSIFICATION_TYPE,NORAD_CAT_ID,ELEMENT_SET_NO,REV_AT_EPOCH,BSTAR,MEAN_MOTION_DOT,MEAN_MOTION_DDOT
AE3VA,2025-135AM,2026-07-11T13:12:44.356032,14.97447923,.0002999,97.7707,307.2982,156.9998,203.1359,0,U,64563,999,5758,.29647E-3,.3392E-4,0
TIME FLIES,2025-135AN,2026-07-10T06:44:16.965888,14.95089677,.00023083,97.7729,305.5286,155.7792,204.3537,0,U,64564,999,5735,.23279407E-3,.2494E-4,0
LEMUR-2-HUBBLE-4,2025-135AP,2026-07-11T06:08:17.714112,14.93677887,.0002359,97.7715,305.8817,173.3640,186.7611,0,U,64565,999,5746,.10968E-3,.1103E-4,0
ARVAKER-3,2025-135AQ,2026-07-11T11:24:52.340256,14.93710610,.0001509,97.7745,306.3338,171.6317,188.4929,0,U,64566,999,5750,.13156E-3,.1335E-4,0
ARVAKER-2,2025-135AR,2026-07-11T13:16:28.756704,14.93650364,.0001077,97.7758,306.4431,161.7503,198.3755,0,U,64567,999,5751,.99738E-4,.997E-5,0
IRIDE-MS2-HEO-3,2025-135AS,2026-07-11T13:30:28.156896,14.91925889,.0001047,97.7753,306.3785,139.0599,221.0698,0,U,64568,999,5751,.87103E-4,.825E-5,0
IRIDE-MS2-HEO-2,2025-135AT,2026-07-11T12:17:26.312640,14.93741358,.0000218,97.7774,306.5446,252.7306,107.3890,0,U,64569,999,5751,.97409E-4,.975E-5,0
ICEYE-X54,2025-135AU,2026-07-11T11:02:57.435936,14.94718789,.0001786,97.7742,306.6508,194.4373,165.6796,0,U,64570,999,5752,.18769E-3,.198E-4,0
IRIDE-MS2-HEO-5,2025-135AV,2026-07-11T12:57:27.342720,14.91908092,.0000379,97.7748,306.3855,174.6233,185.4990,0,U,64571,999,5751,.11831E-3,.1141E-4,0
ICEYE-X52,2025-135AW,2026-07-11T12:32:27.908736,14.93643889,.0000949,97.7766,306.5068,202.7655,157.3523,0,U,64572,999,5751,.12365E-3,.1249E-4,0
MUSAT-3ALPHA,2025-135AX,2026-07-11T07:10:58.859904,15.03702121,.0003757,97.7106,306.4633,145.3094,214.8377,0,U,64573,999,5755,.76622E-4,.989E-5,0
ICEYE-X56,2025-135AY,2026-07-11T12:24:52.851168,14.95747384,.0001099,97.7761,307.2884,212.5529,147.5624,0,U,64574,999,5756,.16653E-3,.1798E-4,0
ION SCV-018,2025-135AZ,2026-07-10T22:04:57.280224,14.94689827,.0011967,97.7797,306.7913,207.5814,152.4772,0,U,64575,999,5747,.59867E-4,.592E-5,0
IRIDE-MS2-HEO-6,2025-135BA,2026-07-11T12:24:06.393024,14.91909626,.0000358,97.7747,306.3889,179.4961,180.6258,0,U,64576,999,5751,.86401E-4,.818E-5,0
LYRA-3,2025-135BB,2026-07-11T12:33:15.529824,14.74544233,.0019372,97.7747,296.5535,262.8042,97.0965,0,U,64577,999,5685,.11822E-3,.74E-5,0
ICEYE-X57,2025-135BC,2026-07-11T12:49:37.094304,15.00865288,.0002122,97.8010,309.0757,59.7559,300.3874,0,U,64578,999,5767,.22389E-3,.2787E-4,0
GRUS-3ALPHA,2025-135BD,2026-07-11T11:35:50.797248,14.93184245,.000149,97.7786,306.4753,274.1688,85.9361,0,U,64579,999,5750,.72451E-4,.7E-5,0
YAM-10,2025-135BE,2026-07-10T06:50:41.607456,14.91891587,.00016516,97.7749,304.8192,277.2022,82.9009,0,U,64580,999,5730,.11236815E-3,.108E-4,0
ICEYE-X55,2025-135BF,2026-07-11T12:34:12.642816,14.95347253,.0001811,97.7762,307.1228,254.9328,105.1692,0,U,64581,999,5755,.18744E-3,.201E-4,0
IRIDE-MS2-HEO-4,2025-135BG,2026-07-11T11:04:19.674048,14.91899043,.0000446,97.7747,306.4778,184.8865,175.2349,0,U,64582,999,5751,.12821E-3,.124E-4,0
CAPELLA-17 (ACADIA-7),2025-135BH,2026-07-11T03:42:35.152992,14.91594691,.0003941,97.7702,305.4223,267.6438,92.4330,0,U,64583,999,5742,.30149E-3,.297E-4,0
ICEYE-X53,2025-135BJ,2026-07-11T11:48:01.939968,15.00880328,.0001775,97.7364,309.1677,166.5506,193.5765,0,U,64584,999,5772,.14272E-4,.122E-5,0
IRIDE-MS2-HEO-9,2025-135BK,2026-07-11T13:45:42.115104,14.91926135,.0000198,97.7781,306.7832,185.3999,174.7217,0,U,64585,999,5753,.71122E-4,.664E-5,0
LEMUR-2-SEJONG-2,2025-135BL,2026-07-11T12:07:03.340128,14.96894868,.0003677,97.7702,307.3643,236.0324,124.0548,0,U,64586,999,5758,.18992E-3,.2121E-4,0
IRIDE-MS2-HEO-8,2025-135BM,2026-07-11T13:14:30.568416,14.91931994,.0000156,97.7757,306.7144,207.4171,152.7040,0,U,64587,999,5753,.11552E-3,.1113E-4,0
BIFROST-DNK,2025-135BN,2026-07-11T12:11:36.518784,14.94752929,.000294,97.7764,306.9714,262.4938,97.5948,0,U,64588,999,5754,.10937E-3,.1131E-4,0
SATORO-T3,2025-135BP,2026-07-11T12:51:18.192672,14.94428607,.0003565,97.7735,306.8173,241.2924,118.7938,0,U,64589,999,5754,.17724E-3,.1853E-4,0
TRANSPORTER-14 OBJECT BQ,2025-135BQ,2026-07-09T13:26:13.752096,14.94139280,.00039614,97.7739,304.7766,253.1950,106.8836,0,U,64590,999,5724,.84463919E-4,.846E-5,0
AE2A,2025-135BR,2026-07-11T13:10:40.281312,14.97346093,.0003761,97.7717,307.6252,236.0762,124.0102,0,U,64591,999,5760,.24549E-3,.2791E-4,0
HUBBLE 7,2025-135BS,2026-07-11T11:21:09.880128,14.93759037,.000139,97.7773,306.9063,253.6080,106.4987,0,U,64592,999,5753,.13089E-3,.133E-4,0
